STARLETTE               
1 07646U 75010A   23003.22023413 -.00000136  00000+0  38621-5 0  9996
2 07646  49.8259  41.7326 0205739 217.4697 141.1701 13.82315419420094
LAGEOS 1                
1 08820U 76039A   23002.56950382 -.00000020  00000+0  00000+0 0  9999
2 08820 109.8460 107.2158 0045129 212.7142 131.9862  6.38664992832974
AJISAI (EGS)            
1 16908U 86061A   23003.23334931 -.00000101  00000+0 -28082-4 0  9998
2 16908  50.0107  64.7405 0011369 210.2484 241.9088 12.44498315323726
COSMOS 1989 (ETALON 1)  
1 19751U 89001C   23003.18328049 -.00000039  00000+0  00000+0 0  9995
2 19751  64.3575 115.5137 0023956 213.9096 146.4484  2.13156201264557
COSMOS 2024 (ETALON 2)  
1 20026U 89039C   23003.47447475 -.00000068  00000+0  00000+0 0  9992
2 20026  65.5107 353.6020 0018674 218.8072 308.2247  2.13204349261619
LAGEOS 2                
1 22195U 92070B   22365.20352477 -.00000009  00000+0  00000+0 0  9993
2 22195  52.6769 345.4677 0138331 354.7902  14.6717  6.47293487713592
STELLA                  
1 22824U 93061B   23003.25518569 -.00000016  00000+0  12442-4 0  9990
2 22824  98.9487  34.0694 0005482 302.5337 158.0504 14.27396508525047
LARES                   
1 38077U 12006A   23002.76399639 -.00000007  00000+0  19664-3 0  9999
2 38077  69.4973 286.8662 0008726 169.4178 190.7030 12.54931681498913
